start=new Date('2022-04-22T00:00:00.000Z').valueOf();
sats=[{"LAUNCH_DATE":"2021-04-07","MEAN_MOTION_DOT":"-0.00000203","RA_OF_ASC_NODE":"64.1996","EPHEMERIS_TYPE":"0","TIME_SYSTEM":"UTC","REV_AT_EPOCH":"5855","EPOCH":"2022-04-21T06:13:53.844672","RCS_SIZE":"LARGE","INCLINATION":"53.0546","ECCENTRICITY":"0.00016460","SITE":"AFETR","PERIOD":"95.592","MEAN_MOTION_DDOT":"0.0000000000000","CENTER_NAME":"EARTH","OBJECT_ID":"2021-027AV","SEMIMAJOR_AXIS":"6925.334","GP_ID":"201750878","FILE":"3410449","MEAN_MOTION":"15.06404589","ELEMENT_SET_NO":"999","OBJECT_TYPE":"PAYLOAD","REF_FRAME":"TEME","MEAN_ANOMALY":"295.1744","BSTAR":"0.00000524420000","CLASSIFICATION_TYPE":"U","DECAY_DATE":null,"NORAD_CAT_ID":"48135","ARG_OF_PERICENTER":"64.9416","PERIAPSIS":"546.060","APOAPSIS":"548.339","MEAN_ELEMENT_THEORY":"SGP4","TLE_LINE1":"1 48135U 21027AV  22111.25965098 -.00000203  00000-0  52442-5 0  9992","TLE_LINE2":"2 48135  53.0546  64.1996 0001646  64.9416 295.1744 15.06404589 58555","COUNTRY_CODE":"US","OBJECT_NAME":"STARLINK-2478"},{"MEAN_ELEMENT_THEORY":"SGP4","OBJECT_NAME":"STARLINK-2479","COUNTRY_CODE":"US","TLE_LINE2":"2 48136  53.0572  57.8315 0001665  64.8501 295.2661 15.06400023 58675","TLE_LINE1":"1 48136U 21027AW  22111.56514042 -.00000096  00000-0  12438-4 0  9996","DECAY_DATE":null,"CLASSIFICATION_TYPE":"U","NORAD_CAT_ID":"48136","APOAPSIS":"548.367","PERIAPSIS":"546.060","ARG_OF_PERICENTER":"64.8501","ELEMENT_SET_NO":"999","FILE":"3410449","MEAN_MOTION":"15.06400023","BSTAR":"0.00001243800000","OBJECT_TYPE":"PAYLOAD","REF_FRAME":"TEME","MEAN_ANOMALY":"295.2661","GP_ID":"201749656","OBJECT_ID":"2021-027AW","SEMIMAJOR_AXIS":"6925.348","CENTER_NAME":"EARTH","MEAN_MOTION_DDOT":"0.0000000000000","ECCENTRICITY":"0.00016650","INCLINATION":"53.0572","PERIOD":"95.592","SITE":"AFETR","REV_AT_EPOCH":"5867","EPHEMERIS_TYPE":"0","TIME_SYSTEM":"UTC","RCS_SIZE":"LARGE","EPOCH":"2022-04-21T13:33:48.132288","MEAN_MOTION_DOT":"-0.00000096","LAUNCH_DATE":"2021-04-07","RA_OF_ASC_NODE":"57.8315"},{"REV_AT_EPOCH":"5894","TIME_SYSTEM":"UTC","EPHEMERIS_TYPE":"0","RCS_SIZE":"LARGE","EPOCH":"2022-04-21T12:36:42.865632","MEAN_MOTION_DOT":"0.00001867","LAUNCH_DATE":"2021-04-07","RA_OF_ASC_NODE":"38.0023","SEMIMAJOR_AXIS":"6925.321","OBJECT_ID":"2021-027AX","CENTER_NAME":"EARTH","MEAN_MOTION_DDOT":"0.0000000000000","ECCENTRICITY":"0.00016440","INCLINATION":"53.0570","PERIOD":"95.592","SITE":"AFETR","ELEMENT_SET_NO":"999","FILE":"3410449","MEAN_MOTION":"15.06408875","BSTAR":"0.00014418000000","MEAN_ANOMALY":"302.8353","OBJECT_TYPE":"PAYLOAD","REF_FRAME":"TEME","GP_ID":"201749402","MEAN_ELEMENT_THEORY":"SGP4","OBJECT_NAME":"STARLINK-2480","TLE_LINE2":"2 48137  53.0570  38.0023 0001644  57.2795 302.8353 15.06408875 58945","COUNTRY_CODE":"US","TLE_LINE1":"1 48137U 21027AX  22111.52549613  .00001867  00000-0  14418-3 0  9990","NORAD_CAT_ID":"48137","DECAY_DATE":null,"CLASSIFICATION_TYPE":"U","APOAPSIS":"548.325","PERIAPSIS":"546.048","ARG_OF_PERICENTER":"57.2795"},{"FILE":"3410449","MEAN_MOTION":"15.06409611","ELEMENT_SET_NO":"999","MEAN_ANOMALY":"298.3798","OBJECT_TYPE":"PAYLOAD","REF_FRAME":"TEME","BSTAR":"0.00003413800000","GP_ID":"201750651","MEAN_ELEMENT_THEORY":"SGP4","TLE_LINE1":"1 48138U 21027AY  22111.55039370  .00000227  00000-0  34138-4 0  9999","COUNTRY_CODE":"US","TLE_LINE2":"2 48138  53.0554  57.9046 0001451  61.7337 298.3798 15.06409611 58672","OBJECT_NAME":"STARLINK-2481","CLASSIFICATION_TYPE":"U","DECAY_DATE":null,"NORAD_CAT_ID":"48138","ARG_OF_PERICENTER":"61.7337","PERIAPSIS":"546.179","APOAPSIS":"548.189","EPHEMERIS_TYPE":"0","TIME_SYSTEM":"UTC","REV_AT_EPOCH":"5867","EPOCH":"2022-04-21T13:12:34.015680","RCS_SIZE":"LARGE","LAUNCH_DATE":"2021-04-07","MEAN_MOTION_DOT":"0.00000227","RA_OF_ASC_NODE":"57.9046","MEAN_MOTION_DDOT":"0.0000000000000","CENTER_NAME":"EARTH","OBJECT_ID":"2021-027AY","SEMIMAJOR_AXIS":"6925.319","INCLINATION":"53.0554","ECCENTRICITY":"0.00014510","SITE":"AFETR","PERIOD":"95.592"},{"RA_OF_ASC_NODE":"36.4458","LAUNCH_DATE":"2021-04-07","MEAN_MOTION_DOT":"0.00001329","EPOCH":"2022-04-21T20:56:59.839584","RCS_SIZE":"LARGE","TIME_SYSTEM":"UTC","EPHEMERIS_TYPE":"0","REV_AT_EPOCH":"5900","SITE":"AFETR","PERIOD":"95.592","INCLINATION":"53.0573","ECCENTRICITY":"0.00015340","CENTER_NAME":"EARTH","MEAN_MOTION_DDOT":"0.0000000000000","SEMIMAJOR_AXIS":"6925.358","OBJECT_ID":"2021-027AZ","GP_ID":"201774271","MEAN_ANOMALY":"297.3084","OBJECT_TYPE":"PAYLOAD","REF_FRAME":"TEME","BSTAR":"0.00010810000000","MEAN_MOTION":"15.06397081","FILE":"3410450","ELEMENT_SET_NO":"999","PERIAPSIS":"546.160","ARG_OF_PERICENTER":"62.8061","APOAPSIS":"548.285","NORAD_CAT_ID":"48139","DECAY_DATE":null,"CLASSIFICATION_TYPE":"U","TLE_LINE2":"2 48139  53.0573  36.4458 0001534  62.8061 297.3084 15.06397081 59003","COUNTRY_CODE":"US","TLE_LINE1":"1 48139U 21027AZ  22111.87291481  .00001329  00000-0  10810-3 0  9992","OBJECT_NAME":"STARLINK-2482","MEAN_ELEMENT_THEORY":"SGP4"},{"ELEMENT_SET_NO":"999","FILE":"3410449","MEAN_MOTION":"15.06401689","BSTAR":"0.00010681000000","MEAN_ANOMALY":"300.2557","OBJECT_TYPE":"PAYLOAD","REF_FRAME":"TEME","GP_ID":"201749156","MEAN_ELEMENT_THEORY":"SGP4","OBJECT_NAME":"STARLINK-2483","TLE_LINE1":"1 48140U 21027BA  22111.57525044  .00001310  00000-0  10681-3 0  9992","TLE_LINE2":"2 48140  53.0573  57.7914 0001564  59.8587 300.2557 15.06401689 58671","COUNTRY_CODE":"US","DECAY_DATE":null,"CLASSIFICATION_TYPE":"U","NORAD_CAT_ID":"48140","APOAPSIS":"548.292","ARG_OF_PERICENTER":"59.8587","PERIAPSIS":"546.125","REV_AT_EPOCH":"5867","TIME_SYSTEM":"UTC","EPHEMERIS_TYPE":"0","RCS_SIZE":"LARGE","EPOCH":"2022-04-21T13:48:21.638016","MEAN_MOTION_DOT":"0.00001310","LAUNCH_DATE":"2021-04-07","RA_OF_ASC_NODE":"57.7914","OBJECT_ID":"2021-027BA","SEMIMAJOR_AXIS":"6925.343","MEAN_MOTION_DDOT":"0.0000000000000","CENTER_NAME":"EARTH","ECCENTRICITY":"0.00015640","INCLINATION":"53.0573","PERIOD":"95.592","SITE":"AFETR"},{"MEAN_MOTION_DDOT":"0.0000000000000","CENTER_NAME":"EARTH","OBJECT_ID":"2021-027BB","SEMIMAJOR_AXIS":"6925.327","INCLINATION":"53.0539","ECCENTRICITY":"0.00016890","SITE":"AFETR","PERIOD":"95.592","EPHEMERIS_TYPE":"0","TIME_SYSTEM":"UTC","REV_AT_EPOCH":"5862","EPOCH":"2022-04-21T03:12:47.994048","RCS_SIZE":"LARGE","LAUNCH_DATE":"2021-04-07","MEAN_MOTION_DOT":"0.00000272","RA_OF_ASC_NODE":"59.7632","MEAN_ELEMENT_THEORY":"SGP4","TLE_LINE1":"1 48141U 21027BB  22111.13388882  .00000272  00000-0  37179-4 0  9990","TLE_LINE2":"2 48141  53.0539  59.7632 0001689  45.4830 314.6297 15.06407070 58628","COUNTRY_CODE":"US","OBJECT_NAME":"STARLINK-2484","CLASSIFICATION_TYPE":"U","DECAY_DATE":null,"NORAD_CAT_ID":"48141","ARG_OF_PERICENTER":"45.4830","PERIAPSIS":"546.022","APOAPSIS":"548.362","MEAN_MOTION":"15.06407070","FILE":"3410449","ELEMENT_SET_NO":"999","OBJECT_TYPE":"PAYLOAD","REF_FRAME":"TEME","MEAN_ANOMALY":"314.6297","BSTAR":"0.00003717900000","GP_ID":"201749903"},{"LAUNCH_DATE":"2021-04-07","MEAN_MOTION_DOT":"0.00003028","RA_OF_ASC_NODE":"36.4708","EPHEMERIS_TYPE":"0","TIME_SYSTEM":"UTC","REV_AT_EPOCH":"5900","EPOCH":"2022-04-21T20:51:41.330304","RCS_SIZE":"LARGE","INCLINATION":"53.0564","ECCENTRICITY":"0.00013690","SITE":"AFETR","PERIOD":"95.592","MEAN_MOTION_DDOT":"0.0000000000000","CENTER_NAME":"EARTH","SEMIMAJOR_AXIS":"6925.330","OBJECT_ID":"2021-027BC","GP_ID":"201775518","MEAN_MOTION":"15.06406147","FILE":"3410450","ELEMENT_SET_NO":"999","MEAN_ANOMALY":"286.3244","OBJECT_TYPE":"PAYLOAD","REF_FRAME":"TEME","BSTAR":"0.00022208000000","NORAD_CAT_ID":"48142","DECAY_DATE":null,"CLASSIFICATION_TYPE":"U","ARG_OF_PERICENTER":"73.7896","PERIAPSIS":"546.247","APOAPSIS":"548.143","MEAN_ELEMENT_THEORY":"SGP4","TLE_LINE1":"1 48142U 21027BC  22111.86922836  .00003028  00000-0  22208-3 0  9992","COUNTRY_CODE":"US","TLE_LINE2":"2 48142  53.0564  36.4708 0001369  73.7896 286.3244 15.06406147 59008","OBJECT_NAME":"STARLINK-2485"},{"RA_OF_ASC_NODE":"351.8452","LAUNCH_DATE":"2021-04-07","MEAN_MOTION_DOT":"0.00000877","EPOCH":"2022-04-21T18:51:34.155072","RCS_SIZE":"LARGE","TIME_SYSTEM":"UTC","EPHEMERIS_TYPE":"0","REV_AT_EPOCH":"5961","SITE":"AFETR","PERIOD":"95.592","INCLINATION":"53.0558","ECCENTRICITY":"0.00015350","CENTER_NAME":"EARTH","MEAN_MOTION_DDOT":"0.0000000000000","OBJECT_ID":"2021-027BD","SEMIMAJOR_AXIS":"6925.336","GP_ID":"201774772","OBJECT_TYPE":"PAYLOAD","MEAN_ANOMALY":"279.2956","REF_FRAME":"TEME","BSTAR":"0.00007777000000","FILE":"3410450","MEAN_MOTION":"15.06404065","ELEMENT_SET_NO":"999","PERIAPSIS":"546.138","ARG_OF_PERICENTER":"80.8207","APOAPSIS":"548.264","DECAY_DATE":null,"CLASSIFICATION_TYPE":"U","NORAD_CAT_ID":"48143","COUNTRY_CODE":"US","TLE_LINE2":"2 48143  53.0558 351.8452 0001535  80.8207 279.2956 15.06404065 59617","TLE_LINE1":"1 48143U 21027BD  22111.78581198  .00000877  00000-0  77770-4 0  9990","OBJECT_NAME":"STARLINK-2486","MEAN_ELEMENT_THEORY":"SGP4"},{"LAUNCH_DATE":"2021-04-07","MEAN_MOTION_DOT":"0.00000689","RA_OF_ASC_NODE":"36.4333","TIME_SYSTEM":"UTC","EPHEMERIS_TYPE":"0","REV_AT_EPOCH":"5899","EPOCH":"2022-04-21T21:02:18.187296","RCS_SIZE":"LARGE","INCLINATION":"53.0572","ECCENTRICITY":"0.00014160","SITE":"AFETR","PERIOD":"95.592","MEAN_MOTION_DDOT":"0.0000000000000","CENTER_NAME":"EARTH","OBJECT_ID":"2021-027BE","SEMIMAJOR_AXIS":"6925.347","GP_ID":"201775022","FILE":"3410450","MEAN_MOTION":"15.06400360","ELEMENT_SET_NO":"999","MEAN_ANOMALY":"282.2914","OBJECT_TYPE":"PAYLOAD","REF_FRAME":"TEME","BSTAR":"0.00006515900000","DECAY_DATE":null,"CLASSIFICATION_TYPE":"U","NORAD_CAT_ID":"48144","ARG_OF_PERICENTER":"77.8233","PERIAPSIS":"546.232","APOAPSIS":"548.193","MEAN_ELEMENT_THEORY":"SGP4","TLE_LINE1":"1 48144U 21027BE  22111.87659939  .00000689  00000-0  65159-4 0  9999","COUNTRY_CODE":"US","TLE_LINE2":"2 48144  53.0572  36.4333 0001416  77.8233 282.2914 15.06400360 58993","OBJECT_NAME":"STARLINK-2487"}];
